PLEIADES 1A             
1 38012U 11076F   26194.33414102 -.00000027  00000+0  39904-5 0  9998
2 38012  98.1975 269.0845 0001702  81.2626 353.4162 14.58545812775808
PLEIADES 1B             
1 39019U 12068A   26194.28528543 -.00000023  00000+0  49520-5 0  9998
2 39019  98.1946 268.9764 0001590  80.4663 279.6716 14.58533308724657
